ONEWEB-0012             
1 44057U 19010A   24054.47097129  .00000140  00000+0  33244-3 0  9998
2 44057  87.9068  36.9092 0002629  72.4902 287.6516 13.16592839240415
ONEWEB-0010             
1 44058U 19010B   24054.49631316  .00000057  00000+0  11598-3 0  9998
2 44058  87.9071  36.8823 0001863  64.6522 295.4802 13.16594526240466
ONEWEB-0008             
1 44059U 19010C   24054.44563692 -.00000250  00000+0 -68651-3 0  9994
2 44059  87.9069  36.8940 0001916  93.4115 266.7235 13.16594207240570
ONEWEB-0007             
1 44060U 19010D   24054.57029485  .00000129  00000+0  30893-3 0  9997
2 44060  87.8952  67.2990 0002200  81.4832 278.6548 13.15549767240327
ONEWEB-0006             
1 44061U 19010E   24054.57422687 -.00001050  00000+0 -28230-2 0  9996
2 44061  87.8945  67.2922 0002094  81.0147 279.1220 13.15551629240379
ONEWEB-0011             
1 44062U 19010F   24054.54415273  .00000089  00000+0  20305-3 0  9992
2 44062  87.8943  67.2961 0001636  85.7429 274.3888 13.15548627240366
ONEWEB-0013             
1 45131U 20008A   24054.49782685 -.00000613  00000+0 -18193-2 0  9993
2 45131  87.8572 222.6092 0002506  98.0095 262.1316 13.09368701195521
ONEWEB-0017             
1 45132U 20008B   24054.63897613  .00000526  00000+0  14698-2 0  9995
2 45132  87.8940 204.0457 0001401  99.6545 260.4741 13.10372321197340
